NORAD_CAT_ID,OBJECT_NAME,OBJECT_TYPE,EPOCH,MEAN_MOTION,ECCENTRICITY,INCLINATION,RA_OF_ASC_NODE,ARG_OF_PERICENTER,MEAN_ANOMALY,BSTAR,MEAN_MOTION_DOT,MEAN_MOTION_DDOT,TLE_LINE0,TLE_LINE1,TLE_LINE2,SEMIMAJOR_AXIS,PERIOD,APOGEE,PERIGEE,DECAYED
55317.0,STARLINK-5265,PAYLOAD,2023-12-18 03:56:58,14.98335045,0.0002056,70.0004,253.1554,254.4931,105.6001,0.0001508,1.707e-05,0.0,0 STARLINK-5265,1 55317U 23010BA  23352.16456406  .00001707  00000-0  15080-3 0  9996,2 55317  70.0004 253.1554 0002056 254.4931 105.6001 14.98335045 52934,6950.177,96.107,573.471,570.613,0.0
55317.0,STARLINK-5265,PAYLOAD,2023-12-18 19:58:20,14.98320261,0.0002431,70.0039,251.4797,214.4873,145.6128,-0.00011311,-1.442e-05,0.0,0 STARLINK-5265,1 55317U 23010BA  23352.83218108 -.00001442  00000-0 -11311-3 0  9996,2 55317  70.0039 251.4797 0002431 214.4873 145.6128 14.98320261 51858,6950.223,96.108,573.778,570.398,0.0
55317.0,STARLINK-5265,PAYLOAD,2023-12-18 21:34:28,14.98317897,0.000222,70.0,251.3029,238.562,121.5322,-0.00018596,-2.31e-05,0.0,0 STARLINK-5265,1 55317U 23010BA  23352.89894404 -.00002310  00000-0 -18596-3 0  9998,2 55317  70.0000 251.3029 0002220 238.5620 121.5322 14.98317897 53049,6950.23,96.108,573.638,570.552,0.0
55317.0,STARLINK-5265,PAYLOAD,2023-12-19 03:59:00,14.98321089,0.000202,70.0,250.6294,260.3226,99.7705,-0.00012255,-1.554e-05,0.0,0 STARLINK-5265,1 55317U 23010BA  23353.16598361 -.00001554  00000-0 -12255-3 0  9997,2 55317  70.0000 250.6294 0002020 260.3226  99.7705 14.98321089 53081,6950.22,96.108,573.489,570.682,0.0
55317.0,STARLINK-5265,PAYLOAD,2023-12-19 20:00:21,14.98328183,0.0002342,69.9999,248.9469,269.5865,90.5025,-8.7585e-05,-1.138e-05,0.0,0 STARLINK-5265,1 55317U 23010BA  23353.83357947 -.00001138  00000-0 -87585-4 0  9991,2 55317  69.9999 248.9469 0002342 269.5865  90.5025 14.98328183 52003,6950.199,96.107,573.691,570.436,0.0
55317.0,STARLINK-5265,PAYLOAD,2023-12-20 02:24:53,14.98334428,0.0001868,69.9998,248.2732,253.9589,106.1364,-1.8141e-05,-3.09e-06,0.0,0 STARLINK-5265,1 55317U 23010BA  23354.10061403 -.00000309  00000-0 -18141-4 0  9992,2 55317  69.9998 248.2732 0001868 253.9589 106.1364 14.98334428 52043,6950.179,96.107,573.342,570.746,0.0
55317.0,STARLINK-5265,PAYLOAD,2023-12-20 20:02:22,14.98320068,0.0002353,69.9996,246.4227,238.1623,121.9307,0.00011076,1.229e-05,0.0,0 STARLINK-5265,1 55317U 23010BA  23354.83497921  .00001229  00000-0  11076-3 0  9999,2 55317  69.9996 246.4227 0002353 238.1623 121.9307 14.98320068 52153,6950.224,96.108,573.724,570.453,0.0
55317.0,STARLINK-5265,PAYLOAD,2023-12-20 21:38:31,14.98310454,0.0002302,69.9992,246.2533,246.8055,113.2861,-1.3876e-05,-2.58e-06,0.0,0 STARLINK-5265,1 55317U 23010BA  23354.90174867 -.00000258  00000-0 -13876-4 0  9992,2 55317  69.9992 246.2533 0002302 246.8055 113.2861 14.98310454 53345,6950.253,96.108,573.718,570.518,0.0
55317.0,STARLINK-5265,PAYLOAD,2023-12-21 02:26:55,14.98306736,0.0002179,69.9997,245.7482,234.7103,125.3853,-2.0668e-05,-3.39e-06,0.0,0 STARLINK-5265,1 55317U 23010BA  23355.10203365 -.00000339  00000-0 -20668-4 0  9998,2 55317  69.9997 245.7482 0002179 234.7103 125.3853 14.98306736 52194,6950.265,96.108,573.644,570.615,0.0
55317.0,STARLINK-5265,PAYLOAD,2023-12-21 21:40:31,14.98325437,0.0002115,69.9997,243.7285,250.1746,109.9185,8.9474e-07,-8.2e-07,0.0,0 STARLINK-5265,1 55317U 23010BA  23355.90314590 -.00000082  00000-0  89474-6 0  9995,2 55317  69.9997 243.7285 0002115 250.1746 109.9185 14.98325437 53497,6950.207,96.107,573.542,570.602,0.0
55317.0,STARLINK-5265,PAYLOAD,2023-12-22 02:28:55,14.98331322,0.0001563,70.0003,243.2251,249.5228,110.5763,6.0737e-05,6.32e-06,0.0,0 STARLINK-5265,1 55317U 23010BA  23356.10342194  .00000632  00000-0  60737-4 0  9998,2 55317  70.0003 243.2251 0001563 249.5228 110.5763 14.98331322 52342,6950.189,96.107,573.14,570.967,0.0
55317.0,STARLINK-5265,PAYLOAD,2023-12-22 21:42:32,14.98326023,0.0002134,70.0,241.2052,239.2299,120.865,0.00020946,2.407e-05,0.0,0 STARLINK-5265,1 55317U 23010BA  23356.90453727  .00002407  00000-0  20946-3 0  9990,2 55317  70.0000 241.2052 0002134 239.2299 120.8650 14.98326023 53640,6950.205,96.107,573.553,570.587,0.0
55317.0,STARLINK-5265,PAYLOAD,2023-12-23 02:30:56,14.98326866,0.0002045,69.9996,240.6987,245.0266,115.0681,0.00020251,2.324e-05,0.0,0 STARLINK-5265,1 55317U 23010BA  23357.10481743  .00002324  00000-0  20251-3 0  9999,2 55317  69.9996 240.6987 0002045 245.0266 115.0681 14.98326866 52498,6950.203,96.107,573.489,570.646,0.0
55317.0,STARLINK-5265,PAYLOAD,2023-12-23 20:08:27,14.98305803,0.0002111,69.9994,238.8473,243.1667,116.9277,-0.00032024,-3.909e-05,0.0,0 STARLINK-5265,1 55317U 23010BA  23357.83920930 -.00003909  00000-0 -32024-3 0  9998,2 55317  69.9994 238.8473 0002111 243.1667 116.9277 14.98305803 52605,6950.268,96.109,573.6,570.666,0.0
55317.0,STARLINK-5265,PAYLOAD,2023-12-23 21:44:35,14.9830624,0.0002137,69.9993,238.679,234.4904,125.6056,-0.0003098,-3.785e-05,0.0,0 STARLINK-5265,1 55317U 23010BA  23357.90596921 -.00003785  00000-0 -30980-3 0  9996,2 55317  69.9993 238.6790 0002137 234.4904 125.6056 14.98306240 53798,6950.266,96.109,573.617,570.646,0.0
55317.0,STARLINK-5265,PAYLOAD,2023-12-24 02:32:58,14.98328576,0.0001751,69.9994,238.1737,262.7337,97.3623,-4.6366e-05,-6.46e-06,0.0,0 STARLINK-5265,1 55317U 23010BA  23358.10623152 -.00000646  00000-0 -46366-4 0  9995,2 55317  69.9994 238.1737 0001751 262.7337  97.3623 14.98328576 52644,6950.197,96.107,573.279,570.845,0.0
55317.0,STARLINK-5265,PAYLOAD,2023-12-24 20:10:25,14.9834409,0.000236,69.9982,236.321,258.0813,102.0081,7.5863e-05,8.13e-06,0.0,0 STARLINK-5265,1 55317U 23010BA  23358.84057438  .00000813  00000-0  75863-4 0  9992,2 55317  69.9982 236.3210 0002360 258.0813 102.0081 14.98344090 52754,6950.149,96.106,573.655,570.374,0.0
55317.0,STARLINK-5265,PAYLOAD,2023-12-24 21:46:33,14.9834374,0.0002047,69.9992,236.1532,245.6848,114.4097,9.4683e-05,1.037e-05,0.0,0 STARLINK-5265,1 55317U 23010BA  23358.90733331  .00001037  00000-0  94683-4 0  9992,2 55317  69.9992 236.1532 0002047 245.6848 114.4097 14.98343740 53949,6950.15,96.106,573.438,570.593,0.0
55317.0,STARLINK-5265,PAYLOAD,2023-12-25 02:34:57,14.98349827,0.0002135,69.9985,235.6471,256.6221,103.47,0.00014564,1.646e-05,0.0,0 STARLINK-5265,1 55317U 23010BA  23359.10760614  .00001646  00000-0  14564-3 0  9994,2 55317  69.9985 235.6471 0002135 256.6221 103.4700 14.98349827 52795,6950.132,96.106,573.48,570.513,0.0
55317.0,STARLINK-5265,PAYLOAD,2023-12-25 20:12:27,14.98292616,0.0002066,70.0004,233.7955,239.5263,120.5692,0.00074042,8.744e-05,0.0,0 STARLINK-5265,1 55317U 23010BA  23359.84198265  .00008744  00000-0  74042-3 0  9995,2 55317  70.0004 233.7955 0002066 239.5263 120.5692 14.98292616 52901,6950.309,96.109,573.609,570.738,0.0
55317.0,STARLINK-5265,PAYLOAD,2023-12-25 21:48:35,14.98295053,0.0002051,70.0002,233.6272,238.4538,121.6421,0.00070832,8.361e-05,0.0,0 STARLINK-5265,1 55317U 23010BA  23359.90874320  .00008361  00000-0  70832-3 0  9993,2 55317  70.0002 233.6272 0002051 238.4538 121.6421 14.98295053 54099,6950.301,96.109,573.591,570.74,0.0
55317.0,STARLINK-5265,PAYLOAD,2023-12-26 02:37:00,14.98298641,0.0001944,69.9999,233.1231,242.5061,117.5901,0.00050639,5.949e-05,0.0,0 STARLINK-5265,1 55317U 23010BA  23360.10902963  .00005949  00000-0  50639-3 0  9994,2 55317  69.9999 233.1231 0001944 242.5061 117.5901 14.98298641 54125,6950.29,96.109,573.506,570.804,0.0
55317.0,STARLINK-5265,PAYLOAD,2023-12-26 20:14:27,14.98341808,0.0001899,69.9997,231.271,234.8493,125.2489,-0.00011218,-1.431e-05,0.0,0 STARLINK-5265,1 55317U 23010BA  23360.84337365 -.00001431  00000-0 -11218-3 0  9997,2 55317  69.9997 231.2710 0001899 234.8493 125.2489 14.98341808 53058,6950.156,96.106,573.341,570.702,0.0
55317.0,STARLINK-5265,PAYLOAD,2023-12-26 21:50:35,14.98341761,0.0001898,69.9994,231.1028,246.101,113.995,-0.0001288,-1.63e-05,0.0,0 STARLINK-5265,1 55317U 23010BA  23360.91013379 -.00001630  00000-0 -12880-3 0  9998,2 55317  69.9994 231.1028 0001898 246.1010 113.9950 14.98341761 54243,6950.157,96.106,573.341,570.702,0.0
55317.0,STARLINK-5265,PAYLOAD,2023-12-27 01:02:51,14.98339581,0.0001896,69.9996,230.7659,235.8568,124.2411,-0.00012935,-1.636e-05,0.0,0 STARLINK-5265,1 55317U 23010BA  23361.04365418 -.00001636  00000-0 -12935-3 0  9994,2 55317  69.9996 230.7659 0001896 235.8568 124.2411 14.98339581 54267,6950.163,96.106,573.346,570.711,0.0
55317.0,STARLINK-5265,PAYLOAD,2023-12-27 18:40:20,14.98331284,0.0002065,69.9988,228.9135,260.1745,99.9181,-1.6985e-05,-2.96e-06,0.0,0 STARLINK-5265,1 55317U 23010BA  23361.77801350 -.00000296  00000-0 -16985-4 0  9995,2 55317  69.9988 228.9135 0002065 260.1745  99.9181 14.98331284 53198,6950.189,96.107,573.489,570.619,0.0
55317.0,STARLINK-5265,PAYLOAD,2023-12-27 21:52:36,14.9833069,0.0002075,69.9988,228.5767,260.5855,99.5069,-2.3079e-05,-3.68e-06,0.0,0 STARLINK-5265,1 55317U 23010BA  23361.91153387 -.00000368  00000-0 -23079-4 0  9993,2 55317  69.9988 228.5767 0002075 260.5855  99.5069 14.98330690 54396,6950.191,96.107,573.498,570.614,0.0
55317.0,STARLINK-5265,PAYLOAD,2023-12-28 01:04:52,14.98332618,0.0002099,69.9987,228.24,263.1298,96.9622,-3.2343e-06,-1.31e-06,0.0,0 STARLINK-5265,1 55317U 23010BA  23362.04505196 -.00000131  00000-0 -32343-5 0  9990,2 55317  69.9987 228.2400 0002099 263.1298  96.9622 14.98332618 54413,6950.185,96.107,573.509,570.591,0.0
55317.0,STARLINK-5265,PAYLOAD,2023-12-28 18:42:21,14.98329273,0.0002115,69.9987,226.3885,263.9574,96.1344,-3.0699e-05,-4.59e-06,0.0,0 STARLINK-5265,1 55317U 23010BA  23362.77941404 -.00000459  00000-0 -30699-4 0  9990,2 55317  69.9987 226.3885 0002115 263.9574  96.1344 14.98329273 53340,6950.195,96.107,573.53,570.59,0.0
55317.0,STARLINK-5265,PAYLOAD,2023-12-28 21:54:37,14.98328558,0.000214,69.9986,226.0516,265.6579,94.4335,-4.1709e-05,-5.9e-06,0.0,0 STARLINK-5265,1 55317U 23010BA  23362.91293481 -.00000590  00000-0 -41709-4 0  9991,2 55317  69.9986 226.0516 0002140 265.6579  94.4335 14.98328558 54548,6950.197,96.107,573.55,570.575,0.0
